METEOSAT-7              
1 24932U 97049B   16076.47048630  .00000028  00000-0  00000-0 0  9991
2 24932  10.0752  41.5526 0001868 298.0007  62.0117  1.00271299 67864
NOAA 15                 
1 25338U 98030A   16077.56819904  .00000097  00000-0  59801-4 0  9997
2 25338  98.7834  81.5349 0011780  92.2165 268.0363 14.25710652927935
METEOSAT-8 (MSG-1)      
1 27509U 02040B   16078.15779473 -.00000009  00000-0  00000+0 0  9993
2 27509   4.0410  60.0793 0000800 254.1675 282.4311  1.00266842 49718
KALPANA-1 (METSAT 1)    
1 27525U 02043A   16076.47239010 -.00000109  00000-0  00000+0 0  9996
2 27525   5.5714  58.3801 0014193 227.1160 132.9113  1.00272796 49497
INSAT-3A                
1 27714U 03013A   16077.72147793 -.00000290  00000-0  00000+0 0  9990
2 27714   0.0152 223.9900 0004483 184.4017 120.5413  1.00273020 47417
NOAA 18                 
1 28654U 05018A   16077.52896036  .00000062  00000-0  59140-4 0  9990
2 28654  99.1983  82.0747 0013293 272.0437  87.9211 14.12274138557791
METEOSAT-9 (MSG-2)      
1 28912U 05049B   16078.15106748  .00000031  00000-0  00000+0 0  9997
2 28912   1.3271  66.7349 0002131 269.1212 264.0537  1.00266509 37548
MTSAT-2                 
1 28937U 06004A   16076.67791043 -.00000274  00000-0  00000+0 0  9999
2 28937   0.0295 257.5049 0003903 105.6890 200.5440  1.00272966 36808
FORMOSAT-3 FM6          
1 29047U 06011A   16077.41395934  .00000209  00000-0  98623-4 0  9992
2 29047  71.9804  39.1273 0052209 221.4021 138.3154 14.28485273519530
FORMOSAT-3 FM1          
1 29048U 06011B   16077.87979601  .00000123  00000-0  65203-4 0  9995
2 29048  71.9681 310.8241 0044473 175.8955 267.3583 14.28429938522090
FORMOSAT-3 FM5          
1 29049U 06011C   16077.58072742  .00000152  00000-0  76530-4 0  9991
2 29049  72.0187 114.3089 0036560 217.8800 141.9764 14.28451148517826
FORMOSAT-3 FM3          
1 29050U 06011D   16077.73972904  .00000628  00000-0  14390-3 0  9992
2 29050  72.0158  57.9267 0052617 265.8107  93.7031 14.58242739530025
FORMOSAT-3 FM4          
1 29051U 06011E   16076.97884073  .00000235  00000-0  10761-3 0  9999
2 29051  72.0078  20.4028 0066411  90.9946 269.8800 14.28463821520328
FORMOSAT-3 FM2          
1 29052U 06011F   16077.78173052  .00000160  00000-0  79341-4 0  9995
2 29052  72.0329  88.3837 0040587 181.6714 178.4293 14.28565597518754
GOES 13                 
1 29155U 06018A   16076.72221321 -.00000282  00000-0  00000+0 0  9999
2 29155   0.3853 269.1847 0005627 136.1130 314.7203  1.00276107 35973
METOP-A                 
1 29499U 06044A   16077.47396047  .00000040  00000-0  38405-4 0  9996
2 29499  98.7070 137.7503 0002135  73.6080 351.9485 14.21480964488258
FENGYUN 2D              
1 29640U 06053A   16077.62648517 -.00000388  00000-0  10000-3 0  9999
2 29640   3.6054  66.7612 0000810  93.6618   4.3838  1.00272360 34027
FENGYUN 3A              
1 32958U 08026A   16078.20527652  .00000024  00000-0  31120-4 0  9991
2 32958  98.4643 122.3044 0009919 157.8697 202.2908 14.19609277404647
FENGYUN 2E              
1 33463U 08066A   16077.82063745 -.00000231  00000-0  00000+0 0  9991
2 33463   1.3402  60.4129 0002426 215.9366 281.6584  1.00267503 26555
NOAA 19                 
1 33591U 09005A   16077.53988147  .00000154  00000-0  10880-3 0  9991
2 33591  99.0296  33.6148 0014893 115.1180 245.1538 14.12051978366208
GOES 14                 
1 35491U 09033A   16076.80511450 -.00000122  00000-0  00000+0 0  9996
2 35491   0.0668 112.9437 0003263 120.4588 126.5407  1.00272031 24617
METEOR-M 1              
1 35865U 09049A   16078.17934391 -.00000019  00000-0  10338-4 0  9998
2 35865  98.4667 113.1601 0003220  55.9087 304.2397 14.22057827337293
GOES 15                 
1 36411U 10008A   16076.88812779  .00000056  00000-0  00000+0 0  9994
2 36411   0.0201 185.1515 0001467 169.6463   5.1736  1.00259296 22144
COMS 1                  
1 36744U 10032A   16077.56879120 -.00000376  00000-0  00000+0 0  9995
2 36744   0.0189 139.1692 0001230 215.3130 154.0067  1.00271165 21117
FENGYUN 3B              
1 37214U 10059A   16078.15159292  .00000055  00000-0  50249-4 0  9992
2 37214  98.8321  33.4466 0017185   1.0862 359.0349 14.15804551278010
ELEKTRO-L 1 (GOMS 2)    
1 37344U 11001A   16077.98713874 -.00000129  00000-0  00000+0 0  9994
2 37344   1.5267  79.7256 0005512 177.5107 350.1811  1.00273308 18935
SUOMI NPP               
1 37849U 11061A   16077.21798514  .00000041  00000-0  39949-4 0  9991
2 37849  98.7141  16.8097 0001701  62.6045  65.0393 14.19564810227259
FENGYUN 2F              
1 38049U 12002A   16077.78670632 -.00000386  00000-0  00000+0 0  9996
2 38049   0.8010  73.5214 0000958 110.6693  26.3801  1.00260970 15354
METEOSAT-10 (MSG-3)     
1 38552U 12035B   16076.51484664 -.00000035  00000-0  00000-0 0  9991
2 38552   0.6031  86.9319 0001723 187.4252  85.5973  1.00264808 13340
METOP-B                 
1 38771U 12049A   16078.13702646 -.00000029  00000-0  66941-5 0  9996
2 38771  98.7003 138.4989 0002156  96.9620 292.7187 14.21485581181480
FENGYUN 3C              
1 39260U 13052A   16078.18176902  .00000036  00000-0  37813-4 0  9992
2 39260  98.6983 151.0741 0000831 113.0314 247.0955 14.19607885128685
METEOR-M 2              
1 40069U 14037A   16078.12360788 -.00000022  00000-0  99058-5 0  9992
2 40069  98.7178 134.6674 0006797  90.1960 269.9999 14.20627193 87807
HIMAWARI 8              
1 40267U 14060A   16077.12280601 -.00000307  00000-0  00000+0 0  9991
2 40267   0.0142 233.2080 0001125 139.8398 346.9279  1.00271145  5327
FENGYUN 2G              
1 40367U 14090A   16077.57687060 -.00000363  00000-0  00000+0 0  9996
2 40367   1.3801 273.4677 0003770 260.6011 313.6940  1.00276630  4504
METEOSAT-11 (MSG-4)     
1 40732U 15034A   16076.24586065 -.00000064  00000-0  00000+0 0  9995
2 40732   2.6969 259.4311 0002244  88.9991 270.5634  1.00273489  2497
ELEKTRO-L 2             
1 41105U 15074A   16077.69974223 -.00000145  00000-0  00000+0 0  9991
2 41105   0.2737 277.7797 0001249 139.6738  87.8456  1.00272207   987
